{
  "type": "FeatureCollection",
  "features": [
    {
      "type": "Feature",
      "properties": {
        "area_id": "ea_50001",
        "area_name": "EA 50001",
        "area_level": 5,
        "level_name": "EA",
        "parent_id": "ward_9001",
        "parent_nam": "Ward 1"
      },
      "geometry": {
        "type": "Polygon",
        "coordinates": [[
          [28.62, -14.35],
          [28.66, -14.35],
          [28.66, -14.40],
          [28.62, -14.40],
          [28.62, -14.35]
        ]]
      }
    },
    {
      "type": "Feature",
      "properties": {
        "area_id": "ea_50002",
        "area_name": "EA 50002",
        "area_level": 5,
        "level_name": "EA",
        "parent_id": "ward_9001",
        "parent_nam": "Ward 1"
      },
      "geometry": {
        "type": "Polygon",
        "coordinates": [[
          [28.66, -14.35],
          [28.70, -14.35],
          [28.70, -14.40],
          [28.66, -14.40],
          [28.66, -14.35]
        ]]
      }
    },
    {
      "type": "Feature",
      "properties": {
        "area_id": "ea_50003",
        "area_name": "EA 50003",
        "area_level": 5,
        "level_name": "EA",
        "parent_id": "ward_9002",
        "parent_nam": "Ward 2"
      },
      "geometry": {
        "type": "Polygon",
        "coordinates": [[
          [28.70, -14.35],
          [28.74, -14.35],
          [28.74, -14.40],
          [28.70, -14.40],
          [28.70, -14.35]
        ]]
      }
    }
  ]
}
